[{"OBJECT_NAME":"STARLINK-31932","OBJECT_ID":"2024-106H","EPOCH":"2026-03-09T08:00:01.000224","MEAN_MOTION":15.27579229,"ECCENTRICITY":0.00015889,"INCLINATION":43.0026,"RA_OF_ASC_NODE":331.3327,"ARG_OF_PERICENTER":281.5974,"MEAN_ANOMALY":95.7698,"EPHEMERIS_TYPE":0,"CLASSIFICATION_TYPE":"U","NORAD_CAT_ID":59929,"ELEMENT_SET_NO":999,"REV_AT_EPOCH":577,"BSTAR":0.00020791125,"MEAN_MOTION_DOT":5.463e-5,"MEAN_MOTION_DDOT":0},{"OBJECT_NAME":"OBJECT G","OBJECT_ID":"2025-155G","EPOCH":"2026-03-09T22:09:56.639808","MEAN_MOTION":15.27590702,"ECCENTRICITY":0.00081871,"INCLINATION":97.4488,"RA_OF_ASC_NODE":37.3259,"ARG_OF_PERICENTER":154.1528,"MEAN_ANOMALY":206.0122,"EPHEMERIS_TYPE":0,"CLASSIFICATION_TYPE":"U","NORAD_CAT_ID":64882,"ELEMENT_SET_NO":999,"REV_AT_EPOCH":6559,"BSTAR":0.0004792617,"MEAN_MOTION_DOT":0.00012876,"MEAN_MOTION_DDOT":0}]
